{"type": "FeatureCollection", "features": [ {"type": "Feature", "properties": {"norad_id": 58662, "name": "TIANMU-1 21", "group": "weather", "lat": 70.91487962050022, "lon": -59.64168235180977, "alt_km": 468.35730560513457, "timestamp": "2025-12-10T18:56:59.705938+00:00", "meta": {"OBJECT_NAME": "TIANMU-1 21", "OBJECT_ID": "2023-208C", "EPOCH": "2025-12-10T13:46:37.360992", "MEAN_MOTION": 15.31475186, "ECCENTRICITY": 0.0005867, "INCLINATION": 97.4373, "RA_OF_ASC_NODE": 97.9596, "ARG_OF_PERICENTER": 269.2824, "MEAN_ANOMALY": 90.7745, "EPHEMERIS_TYPE": 0, "CLASSIFICATION_TYPE": "U", "NORAD_CAT_ID": 58662, "ELEMENT_SET_NO": 999, "REV_AT_EPOCH": 10866, "BSTAR": 0.00053187, "MEAN_MOTION_DOT": 0.00016113, "MEAN_MOTION_DDOT": 0}, "tle": {"line1": "1 58662U 23208C   25344.57404353  .00016113  00000+0  53187-3 0  9999", "line2": "2 58662  97.4373  97.9596 0005867 269.2824  90.7745 15.31475186108660"}}, "geometry": {"type": "Point", "coordinates": [-59.64168235180977, 70.91487962050022]}}, {"type": "Feature", "properties": {"norad_id": 58663, "name": "TIANMU-1 22", "group": "weather", "lat": 56.7081354048147, "lon": 84.41484201288782, "alt_km": 478.67542221230997, "timestamp": "2025-12-10T18:56:59.705948+00:00", "meta": {"OBJECT_NAME": "TIANMU-1 22", "OBJECT_ID": "2023-208D", "EPOCH": "2025-12-10T13:58:58.093248", "MEAN_MOTION": 15.27544714, "ECCENTRICITY": 0.0002731, "INCLINATION": 97.4381, "RA_OF_ASC_NODE": 95.684, "ARG_OF_PERICENTER": 298.5241, "MEAN_ANOMALY": 61.5723, "EPHEMERIS_TYPE": 0, "CLASSIFICATION_TYPE": "U", "NORAD_CAT_ID": 58663, "ELEMENT_SET_NO": 999, "REV_AT_EPOCH": 10850, "BSTAR": 0.000498, "MEAN_MOTION_DOT": 0.00013354, "MEAN_MOTION_DDOT": 0}, "tle": {"line1": "1 58663U 23208D   25344.58261682  .00013354  00000+0  49800-3 0  9998", "line2": "2 58663  97.4381  95.6840 0002731 298.5241  61.5723 15.27544714108506"}}, "geometry": {"type": "Point", "coordinates": [84.41484201288782, 56.7081354048147]}}, {"type": "Feature", "properties": {"norad_id": 58700, "name": "TIANMU-1 15", "group": "weather", "lat": -27.17241967922848, "lon": -17.592009500979042, "alt_km": 498.33553228688925, "timestamp": "2025-12-10T18:56:59.705958+00:00", "meta": {"OBJECT_NAME": "TIANMU-1 15", "OBJECT_ID": "2024-004A", "EPOCH": "2025-12-10T13:19:02.836416", "MEAN_MOTION": 15.24633017, "ECCENTRICITY": 0.000528, "INCLINATION": 97.4631, "RA_OF_ASC_NODE": 166.0326, "ARG_OF_PERICENTER": 307.9614, "MEAN_ANOMALY": 52.1145, "EPHEMERIS_TYPE": 0, "CLASSIFICATION_TYPE": "U", "NORAD_CAT_ID": 58700, "ELEMENT_SET_NO": 999, "REV_AT_EPOCH": 10701, "BSTAR": 0.00040538, "MEAN_MOTION_DOT": 9.941e-05, "MEAN_MOTION_DDOT": 0}, "tle": {"line1": "1 58700U 24004A   25344.55489394  .00009941  00000+0  40538-3 0  9990", "line2": "2 58700  97.4631 166.0326 0005280 307.9614  52.1145 15.24633017107010"}}, "geometry": {"type": "Point", "coordinates": [-17.592009500979042, -27.17241967922848]}}, {"type": "Feature", "properties": {"norad_id": 58701, "name": "TIANMU-1 16", "group": "weather", "lat": -67.90127605582542, "lon": -175.5230606736767, "alt_km": 496.8492520666623, "timestamp": "2025-12-10T18:56:59.705977+00:00", "meta": {"OBJECT_NAME": "TIANMU-1 16", "OBJECT_ID": "2024-004B", "EPOCH": "2025-12-10T12:57:03.309696", "MEAN_MOTION": 15.2438435, "ECCENTRICITY": 0.0004584, "INCLINATION": 97.4571, "RA_OF_ASC_NODE": 165.4085, "ARG_OF_PERICENTER": 306.1456, "MEAN_ANOMALY": 53.9356, "EPHEMERIS_TYPE": 0, "CLASSIFICATION_TYPE": "U", "NORAD_CAT_ID": 58701, "ELEMENT_SET_NO": 999, "REV_AT_EPOCH": 10701, "BSTAR": 0.00041799, "MEAN_MOTION_DOT": 0.00010176, "MEAN_MOTION_DDOT": 0}, "tle": {"line1": "1 58701U 24004B   25344.53962164  .00010176  00000+0  41799-3 0  9992", "line2": "2 58701  97.4571 165.4085 0004584 306.1456  53.9356 15.24384350107016"}}, "geometry": {"type": "Point", "coordinates": [-175.5230606736767, -67.90127605582542]}}, {"type": "Feature", "properties": {"norad_id": 58702, "name": "TIANMU-1 17", "group": "weather", "lat": 14.89735957862174, "lon": 164.06839921382684, "alt_km": 492.37425355364303, "timestamp": "2025-12-10T18:56:59.705995+00:00", "meta": {"OBJECT_NAME": "TIANMU-1 17", "OBJECT_ID": "2024-004C", "EPOCH": "2025-12-10T12:34:57.911232", "MEAN_MOTION": 15.24428931, "ECCENTRICITY": 0.0003813, "INCLINATION": 97.4605, "RA_OF_ASC_NODE": 165.8021, "ARG_OF_PERICENTER": 310.1559, "MEAN_ANOMALY": 49.9344, "EPHEMERIS_TYPE": 0, "CLASSIFICATION_TYPE": "U", "NORAD_CAT_ID": 58702, "ELEMENT_SET_NO": 999, "REV_AT_EPOCH": 10700, "BSTAR": 0.00043007, "MEAN_MOTION_DOT": 0.00010486, "MEAN_MOTION_DDOT": 0}, "tle": {"line1": "1 58702U 24004C   25344.52428138  .00010486  00000+0  43007-3 0  9998", "line2": "2 58702  97.4605 165.8021 0003813 310.1559  49.9344 15.24428931107007"}}, "geometry": {"type": "Point", "coordinates": [164.06839921382684, 14.89735957862174]}}, {"type": "Feature", "properties": {"norad_id": 58703, "name": "TIANMU-1 18", "group": "weather", "lat": 71.69832200447493, "lon": 9.607525033973378, "alt_km": 487.61032630345017, "timestamp": "2025-12-10T18:56:59.706007+00:00", "meta": {"OBJECT_NAME": "TIANMU-1 18", "OBJECT_ID": "2024-004D", "EPOCH": "2025-12-10T12:10:54.696864", "MEAN_MOTION": 15.24417881, "ECCENTRICITY": 0.0003148, "INCLINATION": 97.4622, "RA_OF_ASC_NODE": 165.9803, "ARG_OF_PERICENTER": 311.1126, "MEAN_ANOMALY": 48.9839, "EPHEMERIS_TYPE": 0, "CLASSIFICATION_TYPE": "U", "NORAD_CAT_ID": 58703, "ELEMENT_SET_NO": 999, "REV_AT_EPOCH": 10700, "BSTAR": 0.00041496, "MEAN_MOTION_DOT": 0.00010111, "MEAN_MOTION_DDOT": 0}, "tle": {"line1": "1 58703U 24004D   25344.50757751  .00010111  00000+0  41496-3 0  9998", "line2": "2 58703  97.4622 165.9803 0003148 311.1126  48.9839 15.24417881107008"}}, "geometry": {"type": "Point", "coordinates": [9.607525033973378, 71.69832200447493]}}, {"type": "Feature", "properties": {"norad_id": 58990, "name": "INSAT-3DS", "group": "weather", "lat": 0.011027050627511031, "lon": 86.07542682398973, "alt_km": 35793.4845486851, "timestamp": "2025-12-10T18:56:59.706019+00:00", "meta": {"OBJECT_NAME": "INSAT-3DS", "OBJECT_ID": "2024-033A", "EPOCH": "2025-12-10T08:33:38.632032", "MEAN_MOTION": 1.00269603, "ECCENTRICITY": 0.00016, "INCLINATION": 0.0331, "RA_OF_ASC_NODE": 122.5439, "ARG_OF_PERICENTER": 143.2161, "MEAN_ANOMALY": 24.0578, "EPHEMERIS_TYPE": 0, "CLASSIFICATION_TYPE": "U", "NORAD_CAT_ID": 58990, "ELEMENT_SET_NO": 999, "REV_AT_EPOCH": 4517, "BSTAR": 0, "MEAN_MOTION_DOT": -1.52e-06, "MEAN_MOTION_DDOT": 0}, "tle": {"line1": "1 58990U 24033A   25344.35669713 -.00000152  00000+0  00000+0 0  9998", "line2": "2 58990   0.0331 122.5439 0001600 143.2161  24.0578  1.00269603 45171"}}, "geometry": {"type": "Point", "coordinates": [86.07542682398973, 0.011027050627511031]}}, {"type": "Feature", "properties": {"norad_id": 59051, "name": "METEOR-M2 4", "group": "weather", "lat": -79.13761915395703, "lon": -5.544726071584463, "alt_km": 824.3426389149572, "timestamp": "2025-12-10T18:56:59.706029+00:00", "meta": {"OBJECT_NAME": "METEOR-M2 4", "OBJECT_ID": "2024-039A", "EPOCH": "2025-12-10T12:35:18.262752", "MEAN_MOTION": 14.22400737, "ECCENTRICITY": 0.0007162, "INCLINATION": 98.6763, "RA_OF_ASC_NODE": 301.4682, "ARG_OF_PERICENTER": 4.8784, "MEAN_ANOMALY": 355.2462, "EPHEMERIS_TYPE": 0, "CLASSIFICATION_TYPE": "U", "NORAD_CAT_ID": 59051, "ELEMENT_SET_NO": 999, "REV_AT_EPOCH": 9244, "BSTAR": 5.9762e-05, "MEAN_MOTION_DOT": 8.9e-07, "MEAN_MOTION_DDOT": 0}, "tle": {"line1": "1 59051U 24039A   25344.52451693  .00000089  00000+0  59762-4 0  9990", "line2": "2 59051  98.6763 301.4682 0007162   4.8784 355.2462 14.22400737 92448"}}, "geometry": {"type": "Point", "coordinates": [-5.544726071584463, -79.13761915395703]}}, {"type": "Feature", "properties": {"norad_id": 60133, "name": "GOES 19", "group": "weather", "lat": 0.002773044598935539, "lon": -71.18202064565679, "alt_km": 35780.886372379646, "timestamp": "2025-12-10T18:56:59.706041+00:00", "meta": {"OBJECT_NAME": "GOES 19", "OBJECT_ID": "2024-119A", "EPOCH": "2025-12-10T07:51:04.495104", "MEAN_MOTION": 1.00271256, "ECCENTRICITY": 0.000135, "INCLINATION": 0.0012, "RA_OF_ASC_NODE": 239.7895, "ARG_OF_PERICENTER": 67.9696, "MEAN_ANOMALY": 174.1323, "EPHEMERIS_TYPE": 0, "CLASSIFICATION_TYPE": "U", "NORAD_CAT_ID": 60133, "ELEMENT_SET_NO": 999, "REV_AT_EPOCH": 507, "BSTAR": 0, "MEAN_MOTION_DOT": -2.45e-06, "MEAN_MOTION_DDOT": 0}, "tle": {"line1": "1 60133U 24119A   25344.32713536 -.00000245  00000+0  00000+0 0  9998", "line2": "2 60133   0.0012 239.7895 0001350  67.9696 174.1323  1.00271256  5070"}}, "geometry": {"type": "Point", "coordinates": [-71.18202064565679, 0.002773044598935539]}}, {"type": "Feature", "properties": {"norad_id": 65815, "name": "FENGYUN 3H", "group": "weather", "lat": 6.737250290541886, "lon": 105.45368730729045, "alt_km": 827.6483228936277, "timestamp": "2025-12-10T18:56:59.706051+00:00", "meta": {"OBJECT_NAME": "FENGYUN 3H", "OBJECT_ID": "2025-219A", "EPOCH": "2025-12-10T11:22:21.546336", "MEAN_MOTION": 14.19903758, "ECCENTRICITY": 6.01e-05, "INCLINATION": 98.6582, "RA_OF_ASC_NODE": 284.1135, "ARG_OF_PERICENTER": 87.3864, "MEAN_ANOMALY": 272.7381, "EPHEMERIS_TYPE": 0, "CLASSIFICATION_TYPE": "U", "NORAD_CAT_ID": 65815, "ELEMENT_SET_NO": 999, "REV_AT_EPOCH": 1060, "BSTAR": 0.00010926, "MEAN_MOTION_DOT": 1.89e-06, "MEAN_MOTION_DDOT": 0}, "tle": {"line1": "1 65815U 25219A   25344.47386049  .00000189  00000+0  10926-3 0  9991", "line2": "2 65815  98.6582 284.1135 0000601  87.3864 272.7381 14.19903758 10606"}}, "geometry": {"type": "Point", "coordinates": [105.45368730729045, 6.737250290541886]}}]}